[{"OBJECT_NAME":"STARLINK-1453","OBJECT_ID":"2020-035P","EPOCH":"2026-03-10T00:00:02.999808","MEAN_MOTION":15.52623231,"ECCENTRICITY":0.00068668,"INCLINATION":53.0485,"RA_OF_ASC_NODE":11.8339,"ARG_OF_PERICENTER":53.8237,"MEAN_ANOMALY":148.2661,"EPHEMERIS_TYPE":0,"CLASSIFICATION_TYPE":"U","NORAD_CAT_ID":45670,"ELEMENT_SET_NO":999,"REV_AT_EPOCH":591,"BSTAR":0.0014629927,"MEAN_MOTION_DOT":0.00092259,"MEAN_MOTION_DDOT":0},{"OBJECT_NAME":"SITRO-AIS 46","OBJECT_ID":"2024-199AR","EPOCH":"2026-03-09T22:46:46.525440","MEAN_MOTION":15.51304628,"ECCENTRICITY":0.00068268,"INCLINATION":97.307,"RA_OF_ASC_NODE":303.3786,"ARG_OF_PERICENTER":303.3302,"MEAN_ANOMALY":56.7296,"EPHEMERIS_TYPE":0,"CLASSIFICATION_TYPE":"U","NORAD_CAT_ID":61774,"ELEMENT_SET_NO":999,"REV_AT_EPOCH":11904,"BSTAR":0.00081688742,"MEAN_MOTION_DOT":0.00048106,"MEAN_MOTION_DDOT":0}]
